MEAN_MOTION;ECCENTRICITY;INCLINATION;RA_OF_ASC_NODE;ARG_OF_PERICENTER;MEAN_ANOMALY;BSTAR;MEAN_MOTION_DOT;MEAN_MOTION_DDOT;TYPE
12.63282341;0.0002579;51.9989;185.5464;259.7528;261.0728;8.4311E-5;-8.9E-7;0;Globalstar
12.63282401;0.0002592;51.9989;182.4222;262.6314;238.7531;6.5762E-5;-9.2E-7;0;Globalstar
12.63282392;0.0002612;51.9989;179.2776;265.462;247.0152;2.2642E-5;-1.0E-6;0;Globalstar
12.6328233;0.0002612;51.9988;177.1619;267.1427;161.3306;-1.5176E-5;-1.07E-6;0;Globalstar
12.63282329;0.0002613;51.9988;176.6243;267.6533;242.797;-8.34E-6;-1.06E-6;0;Globalstar
12.63282307;0.0002625;51.9987;175.0234;269.0487;109.402;-1.7122E-5;-1.07E-6;0;Globalstar
12.63282226;0.0002632;51.9987;174.0229;269.8721;161.0959;-5.8824E-5;-1.15E-6;0;Globalstar
12.63282283;0.0002647;51.9992;173.4799;270.3859;250.4699;-5.3777E-6;-1.05E-6;0;Globalstar
12.63282252;0.0002662;51.9992;171.1282;272.4837;156.5274;-2.9255E-5;-1.09E-6;0;Globalstar
12.63282234;0.000268;51.9992;167.7008;275.5941;226.3707;-4.2041E-5;-1.12E-6;0;Globalstar
12.63282252;0.0002688;51.9991;164.8289;278.1589;187.9631;-1.0323E-5;-1.06E-6;0;Globalstar
12.63282258;0.0002702;51.9992;161.9347;280.687;182.8098;-5.2989E-6;-1.05E-6;0;Globalstar
12.63282265;0.0002717;51.9991;158.7954;283.3735;183.2048;1.2666E-5;-1.02E-6;0;Globalstar
12.63282245;0.0002718;51.9988;158.2892;284.0112;217.8797;9.293E-5;-8.7E-7;0;Globalstar
12.63282209;0.0002749;51.999;155.1462;286.5907;223.4104;-1.3286E-5;-1.06E-6;0;Globalstar
12.63282187;0.0002762;51.999;152.7615;288.6838;178.6018;-1.7821E-5;-1.07E-6;0;Globalstar
12.63282183;0.0002779;51.9989;150.8912;290.2859;86.9591;-1.1058E-5;-1.06E-6;0;Globalstar
12.63282224;0.0002781;51.9988;149.6341;291.3243;161.0953;1.6659E-5;-1.01E-6;0;Globalstar
12.63282245;0.0002802;51.9988;146.9953;293.5809;135.1161;3.1076E-5;-9.8E-7;0;Globalstar
12.63282236;0.0002804;51.9988;146.7282;293.8501;173.2498;2.9566E-5;-9.9E-7;0;Globalstar
12.63282193;0.0002823;51.9987;143.6006;296.6782;155.7768;7.3927E-6;-1.03E-6;0;Globalstar
12.632822;0.0002851;51.9986;140.1889;299.4891;202.1232;6.4364E-6;-1.03E-6;0;Globalstar
12.63282197;0.0002867;51.998;137.0461;302.1511;207.9366;1.2376E-5;-1.02E-6;0;Globalstar
12.63282227;0.0002888;51.9979;134.661;304.219;163.6269;6.4855E-5;-9.2E-7;0;Globalstar
12.63282284;0.000291;51.9979;132.5376;305.997;89.1951;0.00010835;-8.4E-7;0;Globalstar
12.63282394;0.000291;51.9978;131.5332;306.9302;146.6038;0.00019078;-6.9E-7;0;Globalstar
12.63282525;0.0002927;51.9978;128.6431;309.3475;135.1633;0.00026128;-5.7E-7;0;Globalstar
12.63282607;0.0002965;51.9978;125.4637;312.1673;195.0027;0.0002581;-5.7E-7;0;Globalstar
12.63282624;0.0002959;51.9978;125.2389;312.2286;170.2726;0.00025879;-5.7E-7;0;Globalstar
12.63282703;0.0002982;51.9978;122.3237;314.7432;196.0817;0.00023647;-6.1E-7;0;Globalstar
12.63282799;0.0003006;51.9977;119.205;317.3262;165.306;0.00019382;-6.9E-7;0;Globalstar
12.63282806;0.0003008;51.9977;118.9426;317.5226;196.4727;0.00018594;-7.0E-7;0;Globalstar
12.6328284;0.0003017;51.9977;117.5853;318.586;60.0239;0.00016877;-7.3E-7;0;Globalstar
12.63282907;0.000305;51.9977;114.1928;321.4814;77.5173;0.00011119;-8.4E-7;0;Globalstar
12.63282922;0.000306;51.9977;113.143;322.35;202.5525;0.00010336;-8.5E-7;0;Globalstar
12.63282934;0.000308;51.9977;111.0296;324.1432;113.0223;6.5731E-5;-9.2E-7;0;Globalstar
12.63282931;0.0003094;51.9977;110.021;325.0698;176.6947;5.4434E-5;-9.4E-7;0;Globalstar
12.63282931;0.0003111;51.9977;107.8912;326.8158;111.659;2.679E-5;-9.9E-7;0;Globalstar
12.63282945;0.000312;51.9977;107.1376;327.5011;155.1386;3.5229E-5;-9.8E-7;0;Globalstar
12.63282967;0.0003139;51.9978;104.4934;329.6393;137.0474;4.4244E-5;-9.6E-7;0;Globalstar
12.63282992;0.0003149;51.9978;103.9871;330.1358;171.668;5.8502E-5;-9.3E-7;0;Globalstar
12.63283053;0.000318;51.9979;101.1037;332.6799;150.0312;0.0001109;-8.4E-7;0;Globalstar
12.63283057;0.0003183;51.9979;100.8439;332.8823;177.3425;0.00010687;-8.5E-7;0;Globalstar
12.63283097;0.0003213;51.9981;97.9531;335.4411;166.7465;0.00013507;-8.0E-7;0;Globalstar
12.63283108;0.000323;51.9983;94.8098;337.7691;173.0035;0.00012312;-8.2E-7;0;Globalstar
12.63283117;0.0003251;51.9985;91.9197;340.0788;161.743;0.00010732;-8.5E-7;0;Globalstar
12.63283136;0.0003289;51.9988;87.4169;343.6928;34.8012;6.0819E-5;-9.3E-7;0;Globalstar
12.63283128;0.0003314;51.9989;84.2671;346.355;50.5122;9.301E-6;-1.02E-6;0;Globalstar
12.6328315;0.0003323;51.999;82.7431;347.4106;162.8374;-8.5685E-7;-1.04E-6;0;Globalstar
12.63283137;0.0003349;51.9992;79.8526;349.8392;152.0473;-2.9167E-5;-1.09E-6;0;Globalstar
12.6328312;0.0003364;51.9994;77.4657;351.6405;110.7905;-6.3207E-5;-1.16E-6;0;Globalstar
12.63283126;0.0003384;51.9995;75.3426;353.3471;36.0788;-6.4376E-5;-1.16E-6;0;Globalstar
12.63283109;0.0003391;51.9996;74.3249;354.1743;113.4293;-7.1706E-5;-1.17E-6;0;Globalstar
12.63283122;0.0003408;51.9997;72.1987;355.8202;43.3297;-6.668E-5;-1.16E-6;0;Globalstar
12.63283153;0.0003426;51.9999;70.6759;356.9892;153.8236;-3.6877E-5;-1.11E-6;0;Globalstar
12.63283151;0.0003449;52.0001;67.7857;359.3436;142.6527;-1.2367E-5;-1.06E-6;0;Globalstar
12.6328319;0.0003465;52.0003;65.3984;1.1541;102.0923;3.5821E-5;-9.8E-7;0;Globalstar
12.63283183;0.0003472;52.0004;64.6425;1.7461;149.0852;3.0047E-5;-9.9E-7;0;Globalstar
12.6328321;0.0003491;52.0006;62.2575;3.5748;105.1648;6.1081E-5;-9.3E-7;0;Globalstar
12.63283221;0.0003497;52.0006;61.5131;4.1638;134.9576;5.8468E-5;-9.3E-7;0;Globalstar
12.63283257;0.0003518;52.0008;58.6083;6.4191;146.0627;8.2855E-5;-8.9E-7;0;Globalstar
12.63283254;0.0003528;52.0009;57.0023;7.7401;20.6484;6.8348E-5;-9.2E-7;0;Globalstar
12.63283176;0.0003545;52.0011;55.4652;8.8836;152.5447;2.4856E-6;-1.04E-6;0;Globalstar
12.63283175;0.0003554;52.0011;54.1115;9.9486;10.9021;-3.5329E-6;-1.05E-6;0;Globalstar
12.6328295;0.0003576;52.0015;50.9699;12.4128;15.3602;-0.00016578;-1.34E-6;0;Globalstar
12.63282835;0.0003582;52.0015;49.9132;13.2296;150.9658;-0.00023047;-1.46E-6;0;Globalstar
12.63282785;0.0003603;52.0016;47.8249;14.768;24.6309;-0.00023078;-1.46E-6;0;Globalstar
12.63282746;0.0003614;52.0017;46.5426;15.6539;136.7857;-0.00022285;-1.45E-6;0;Globalstar
12.6328269;0.0003628;52.0017;44.6622;17.2048;60.2845;-0.00022432;-1.45E-6;0;Globalstar
12.63282658;0.000364;52.0017;43.6536;17.8814;124.2347;-0.00021702;-1.44E-6;0;Globalstar
12.63282588;0.000366;52.0018;40.9955;19.8114;127.6858;-0.00021316;-1.43E-6;0;Globalstar
12.63282607;0.0003662;52.0018;40.5098;20.2806;131.7684;-0.00018171;-1.37E-6;0;Globalstar
12.63282586;0.0003673;52.0019;38.6168;21.6903;74.384;-0.0001701;-1.35E-6;0;Globalstar
12.63282631;0.0003682;52.0019;37.881;22.3249;91.357;-0.00012695;-1.27E-6;0;Globalstar
12.63282631;0.0003685;52.0019;37.6206;22.5138;119.6325;-0.00012147;-1.26E-6;0;Globalstar
12.63282648;0.0003697;52.0019;35.4912;24.0749;54.7616;-8.6381E-5;-1.2E-6;0;Globalstar
12.63282715;0.0003719;52.0017;34.4763;25.0653;127.9177;-1.7294E-5;-1.07E-6;0;Globalstar
12.6328275;0.0003724;52.0017;32.5962;26.3517;51.1671;1.7968E-5;-1.01E-6;0;Globalstar
12.63282839;0.0003745;52.0018;29.7255;28.6124;11.3566;8.4335E-5;-8.9E-7;0;Globalstar
12.63282866;0.0003747;52.0018;29.4583;28.7909;49.8905;0.0001109;-8.4E-7;0;Globalstar
12.63282881;0.0003762;52.0018;26.5626;31.0242;47.3127;0.00011432;-8.3E-7;0;Globalstar
12.63282911;0.0003777;52.0018;23.4256;33.2116;44.9887;0.00011045;-8.4E-7;0;Globalstar
12.63282943;0.000378;52.0018;22.6714;33.8308;89.4251;0.00013355;-8.0E-7;0;Globalstar
12.63282972;0.00038;52.0018;19.5216;36.0871;106.1659;0.00011604;-8.3E-7;0;Globalstar
12.63283031;0.0003819;52.0018;16.3779;38.3142;113.8205;0.0001161;-8.3E-7;0;Globalstar
12.63283091;0.000383;52.0017;14.2611;39.7853;30.0593;0.00013721;-7.9E-7;0;Globalstar
12.63283141;0.0003837;52.0017;13.4886;40.4792;101.7779;0.00015869;-7.5E-7;0;Globalstar
12.63283199;0.0003846;52.0016;11.3595;41.8686;36.6301;0.00016588;-7.4E-7;0;Globalstar
12.63283219;0.0003849;52.0016;11.1032;42.049;58.7395;0.00017989;-7.1E-7;0;Globalstar
12.63283244;0.0003853;52.0016;10.3403;42.5818;116.2148;0.00017138;-7.3E-7;0;Globalstar
12.63283322;0.0003865;52.0016;8.228;44.0833;25.8636;0.00019536;-6.9E-7;0;Globalstar
12.63283346;0.0003871;52.0015;7.4555;44.539;97.7882;0.0001962;-6.8E-7;0;Globalstar
12.63283415;0.0003881;52.0014;5.0691;46.4014;55.8992;0.00020297;-6.7E-7;0;Globalstar
12.63283448;0.0003889;52.0014;4.3104;46.786;107.3538;0.00020202;-6.7E-7;0;Globalstar
12.63283492;0.0003901;52.0014;2.1949;48.3625;21.6058;0.00021175;-6.6E-7;0;Globalstar
12.63283534;0.0003909;52.0013;359.3062;50.7572;8.2492;0.0001906;-6.9E-7;0;Globalstar
12.63283502;0.0003911;52.0013;359.0557;50.9335;21.6785;0.00017437;-7.2E-7;0;Globalstar
12.63283381;0.0003926;52.0012;356.1612;52.7086;17.7376;6.612E-5;-9.2E-7;0;Globalstar
12.63283386;0.0003914;52.0015;355.3885;53.085;89.8135;1.6992E-5;-1.01E-6;0;Globalstar
12.63283319;0.000392;52.0015;353.0023;54.8232;47.7676;-4.0747E-5;-1.12E-6;0;Globalstar
12.63283336;0.0003923;52.0014;352.2446;55.3787;97.3852;-2.7584E-5;-1.09E-6;0;Globalstar
12.63283348;0.000393;52.0014;349.8613;57.1032;50.9816;-1.3877E-5;-1.07E-6;0;Globalstar
12.63283422;0.0003956;52.0009;346.9698;59.2374;42.1982;5.2261E-5;-9.5E-7;0;Globalstar
12.63283483;0.0003959;52.0009;346.2114;59.7748;93.0443;9.0273E-5;-8.8E-7;0;Globalstar
12.63283506;0.0003965;52.0008;343.8428;61.4903;24.6023;8.6066E-5;-8.8E-7;0;Globalstar
12.63283505;0.0003968;52.0008;343.3224;61.8093;80.6483;7.8236E-5;-9.0E-7;0;Globalstar
12.63283459;0.0003971;52.0007;340.6999;63.6713;30.7214;2.6904E-5;-9.9E-7;0;Globalstar
12.63283446;0.0003972;52.0007;340.1775;63.9638;89.6237;1.0558E-5;-1.02E-6;0;Globalstar
12.63283428;0.0003952;52.001;337.8098;65.6132;19.6279;1.6987E-5;-1.01E-6;0;Globalstar
12.63283394;0.0003958;52.001;335.1593;67.4051;11.5834;-9.9856E-6;-1.06E-6;0;Globalstar
12.63283397;0.0003959;52.0009;334.9031;67.5818;33.6342;-7.6523E-6;-1.05E-6;0;Globalstar
12.63283402;0.0003967;52.0009;331.7759;69.6465;16.553;-1.1165E-5;-1.06E-6;0;Globalstar
12.63283447;0.0003972;52.0008;328.633;71.8345;22.6585;1.7707E-5;-1.01E-6;0;Globalstar
